[{"OBJECT_NAME":"PUNCH-NFI (SMEX 15A)","OBJECT_ID":"2025-047A","EPOCH":"2026-03-09T11:19:46.605216","MEAN_MOTION":14.7465072,"ECCENTRICITY":0.00122832,"INCLINATION":97.9559,"RA_OF_ASC_NODE":255.696,"ARG_OF_PERICENTER":116.2787,"MEAN_ANOMALY":243.9685,"EPHEMERIS_TYPE":0,"CLASSIFICATION_TYPE":"U","NORAD_CAT_ID":63178,"ELEMENT_SET_NO":999,"REV_AT_EPOCH":5338,"BSTAR":0.00014970428,"MEAN_MOTION_DOT":9.5e-6,"MEAN_MOTION_DDOT":0},{"OBJECT_NAME":"FENGYUN 1C DEB","OBJECT_ID":"1999-025CFY","EPOCH":"2026-03-09T05:46:11.720352","MEAN_MOTION":14.75894288,"ECCENTRICITY":0.0036045,"INCLINATION":98.9551,"RA_OF_ASC_NODE":73.1434,"ARG_OF_PERICENTER":270.5165,"MEAN_ANOMALY":89.1911,"EPHEMERIS_TYPE":0,"CLASSIFICATION_TYPE":"U","NORAD_CAT_ID":31773,"ELEMENT_SET_NO":999,"REV_AT_EPOCH":66449,"BSTAR":0.0025259809,"MEAN_MOTION_DOT":0.00017511,"MEAN_MOTION_DDOT":0}]
